{"dragon": {"capsule": null, "mass_returned_kg": null, "mass_returned_lbs": null, "flight_time_sec": null, "manifest": null, "water_landing": null, "land_landing": null}, "name": "Iridium NEXT 1", "type": "Satellite", "reused": false, "launch": "5eb87cfdffd86e000604b34c", "customers": ["Iridium Communications"], "norad_ids": [41917, 41918, 41919, 41920, 41921, 41922, 41923, 41924, 41925, 41926], "nationalities": ["United States"], "manufacturers": ["Thales Alenia Space"], "mass_kg": 9600, "mass_lbs": 21200, "orbit": "PO", "reference_system": "geocentric", "regime": "low-earth", "longitude": null, "semi_major_axis_km": 7155.795, "eccentricity": 0.0002407, "periapsis_km": 775.937, "apoapsis_km": 779.382, "inclination_deg": 86.3955, "period_min": 100.403, "lifespan_years": 15, "epoch": "2022-01-29T12:18:14.000Z", "mean_motion": 14.3422056, "raan": 36.9869, "arg_of_pericenter": 95.3555, "mean_anomaly": 264.7915, "id": "5eb0e4c2b6c3bb0006eeb208"}